ONEWEB-0233             
1 48795U 21045AE  24147.71595077  .00000202  00000+0  50186-3 0  9990
2 48795  87.9057  48.7830 0001878  85.6442 274.4903 13.15549738145492
ONEWEB-0190             
1 48796U 21045AF  24147.78805985  .00000221  00000+0  55319-3 0  9994
2 48796  87.9058  48.7320 0002686  97.4502 262.6933 13.15548499145578
ONEWEB-0236             
1 48797U 21045AG  24147.95760198  .00000167  00000+0  40848-3 0  9990
2 48797  87.9063  48.6912 0002055  79.6715 280.4647 13.15548328145480
ONEWEB-0248             
1 48798U 21045AH  24148.19844725 -.00001572  00000+0 -42093-2 0  9993
2 48798  87.9053  48.6356 0002574  72.8433 287.2979 13.15556117146793
ONEWEB-0225             
1 48799U 21045AJ  24148.22063101 -.00000189  00000+0 -53545-3 0  9997
2 48799  87.9059  48.6424 0002605  88.1226 272.0202 13.15547999146824
ONEWEB-0215             
1 48800U 21045AK  24148.19052004  .00000090  00000+0  20505-3 0  9995
2 48800  87.9052  48.6238 0002764  88.4653 271.6793 13.15547443146673
ONEWEB-0216             
1 48801U 21045AL  24148.20004277  .00013458  00000+0  35694-1 0  9992
2 48801  87.9052  48.6624 0002297  94.6284 265.5109 13.15485193146680
ONEWEB-0239             
1 48802U 21045AM  24148.20480014  .00007231  00000+0  19169-1 0  9991
2 48802  87.9062  48.6353 0003146  86.1271 274.0218 13.15512533146749
